[
    {
        "Altitude(m)": 607886.7318283123,
        "Argument of Periapsis(deg)": 0.0,
        "Eccentricity": 0.0,
        "Inclination(deg)": 60.0,
        "Latitude(deg)": 40.998553028581746,
        "Longitude(deg)": 139.9730088839509,
        "Mean Anomaly(deg)": 49.09089999999999,
        "RAAN(deg)": 210.0,
        "Satellite Name": "Test1 927",
        "Satellite Number": 927,
        "Semi-Major Axis(m)": 6980739.136638005,
        "Time(s)": 0
    },
    {
        "Altitude(m)": 607987.6458457636,
        "Argument of Periapsis(deg)": 0.00010418945913296404,
        "Eccentricity": 0.0,
        "Inclination(deg)": 60.0,
        "Latitude(deg)": 41.46364279065805,
        "Longitude(deg)": 140.4772380834214,
        "Mean Anomaly(deg)": 49.711006145461845,
        "RAAN(deg)": 209.99957995086027,
        "Satellite Name": "Test1 927",
        "Satellite Number": 927,
        "Semi-Major Axis(m)": 6980739.136638005,
        "Time(s)": 10
    },
    {
        "Altitude(m)": 608088.6094654497,
        "Argument of Periapsis(deg)": 0.0002083789182659281,
        "Eccentricity": 0.0,
        "Inclination(deg)": 60.0,
        "Latitude(deg)": 41.92606836587768,
        "Longitude(deg)": 140.98929033432756,
        "Mean Anomaly(deg)": 50.331112290923684,
        "RAAN(deg)": 209.99915990172056,
        "Satellite Name": "Test1 927",
        "Satellite Number": 927,
        "Semi-Major Axis(m)": 6980739.136638005,
        "Time(s)": 20
    },
    {
        "Altitude(m)": 608189.5594661233,
        "Argument of Periapsis(deg)": 0.00031256837739889213,
        "Eccentricity": 0.0,
        "Inclination(deg)": 60.0,
        "Latitude(deg)": 42.38574900417283,
        "Longitude(deg)": 141.50936167867047,
        "Mean Anomaly(deg)": 50.951218436385474,
        "RAAN(deg)": 209.99873985258077,
        "Satellite Name": "Test1 927",
        "Satellite Number": 927,
        "Semi-Major Axis(m)": 6980739.136638005,
        "Time(s)": 30
    },
    {
        "Altitude(m)": 608290.4328532699,
        "Argument of Periapsis(deg)": 0.0004167578365318562,
        "Eccentricity": 0.0,
        "Inclination(deg)": 60.0,
        "Latitude(deg)": 42.84260140841668,
        "Longitude(deg)": 142.03765202517712,
        "Mean Anomaly(deg)": 51.5713245818473,
        "RAAN(deg)": 209.99831980344106,
        "Satellite Name": "Test1 927",
        "Satellite Number": 927,
        "Semi-Major Axis(m)": 6980739.136638005,
        "Time(s)": 40
    },
    {
        "Altitude(m)": 608391.1668903594,
        "Argument of Periapsis(deg)": 0.0005209472956648203,
        "Eccentricity": 0.0,
        "Inclination(deg)": 60.0,
        "Latitude(deg)": 43.29653965503742,
        "Longitude(deg)": 142.57436405427666,
        "Mean Anomaly(deg)": 52.191430727309154,
        "RAAN(deg)": 209.9978997543013,
        "Satellite Name": "Test1 927",
        "Satellite Number": 927,
        "Semi-Major Axis(m)": 6980739.136638005,
        "Time(s)": 50
    },
    {
        "Altitude(m)": 608491.6991299272,
        "Argument of Periapsis(deg)": 0.0006251367547977843,
        "Eccentricity": 0.0,
        "Inclination(deg)": 60.0,
        "Latitude(deg)": 43.7474751139216,
        "Longitude(deg)": 143.1197036161852,
        "Mean Anomaly(deg)": 52.81153687277099,
        "RAAN(deg)": 209.99747970516154,
        "Satellite Name": "Test1 927",
        "Satellite Number": 927,
        "Semi-Major Axis(m)": 6980739.136638005,
        "Time(s)": 60
    },
    {
        "Altitude(m)": 608591.9674444548,
        "Argument of Periapsis(deg)": 0.0007293262139307483,
        "Eccentricity": 0.0,
        "Inclination(deg)": 60.0,
        "Latitude(deg)": 44.195316367840185,
        "Longitude(deg)": 143.67388010733472,
        "Mean Anomaly(deg)": 53.43164301823279,
        "RAAN(deg)": 209.9970596560218,
        "Satellite Name": "Test1 927",
        "Satellite Number": 927,
        "Semi-Major Axis(m)": 6980739.136638005,
        "Time(s)": 70
    },
    {
        "Altitude(m)": 608691.9100570729,
        "Argument of Periapsis(deg)": 0.0008335156730637124,
        "Eccentricity": 0.0,
        "Inclination(deg)": 60.0,
        "Latitude(deg)": 44.63996913166403,
        "Longitude(deg)": 144.2371053102596,
        "Mean Anomaly(deg)": 54.05174916369461,
        "RAAN(deg)": 209.9966396068821,
        "Satellite Name": "Test1 927",
        "Satellite Number": 927,
        "Semi-Major Axis(m)": 6980739.136638005,
        "Time(s)": 80
    },
    {
        "Altitude(m)": 608791.4655720055,
        "Argument of Periapsis(deg)": 0.0009377051321966765,
        "Eccentricity": 0.0,
        "Inclination(deg)": 60.0,
        "Latitude(deg)": 45.08133617166678,
        "Longitude(deg)": 144.8095937205554,
        "Mean Anomaly(deg)": 54.67185530915647,
        "RAAN(deg)": 209.99621955774234,
        "Satellite Name": "Test1 927",
        "Satellite Number": 927,
        "Semi-Major Axis(m)": 6980739.136638005,
        "Time(s)": 90
    },
    {
        "Altitude(m)": 608890.5730048273,
        "Argument of Periapsis(deg)": 0.0010418945913296407,
        "Eccentricity": 0.0,
        "Inclination(deg)": 60.0,
        "Latitude(deg)": 45.51931722525893,
        "Longitude(deg)": 145.39156284577737,
        "Mean Anomaly(deg)": 55.2919614546183,
        "RAAN(deg)": 209.99579950860257,
        "Satellite Name": "Test1 927",
        "Satellite Number": 927,
        "Semi-Major Axis(m)": 6980739.136638005,
        "Time(s)": 100
    },
    {
        "Altitude(m)": 608989.1718124525,
        "Argument of Periapsis(deg)": 0.0011460840504626045,
        "Eccentricity": 0.0,
        "Inclination(deg)": 60.0,
        "Latitude(deg)": 45.953808921541444,
        "Longitude(deg)": 145.98323196102226,
        "Mean Anomaly(deg)": 55.91206760008015,
        "RAAN(deg)": 209.99537945946284,
        "Satellite Name": "Test1 927",
        "Satellite Number": 927,
        "Semi-Major Axis(m)": 6980739.136638005,
        "Time(s)": 110
    },
    {
        "Altitude(m)": 609087.2019228608,
        "Argument of Periapsis(deg)": 0.0012502735095955685,
        "Eccentricity": 0.0,
        "Inclination(deg)": 60.0,
        "Latitude(deg)": 46.38470470310619,
        "Longitude(deg)": 146.5848223444451,
        "Mean Anomaly(deg)": 56.53217374554198,
        "RAAN(deg)": 209.99495941032313,
        "Satellite Name": "Test1 927",
        "Satellite Number": 927,
        "Semi-Major Axis(m)": 6980739.136638005,
        "Time(s)": 120
    },
    {
        "Altitude(m)": 609184.6037645565,
        "Argument of Periapsis(deg)": 0.0013544629687285324,
        "Eccentricity": 0.0,
        "Inclination(deg)": 60.0,
        "Latitude(deg)": 46.811894749570044,
        "Longitude(deg)": 147.1965574772246,
        "Mean Anomaly(deg)": 57.15227989100378,
        "RAAN(deg)": 209.99453936118337,
        "Satellite Name": "Test1 927",
        "Satellite Number": 927,
        "Semi-Major Axis(m)": 6980739.136638005,
        "Time(s)": 130
    },
    {
        "Altitude(m)": 609281.3182957661,
        "Argument of Periapsis(deg)": 0.0014586524278614966,
        "Eccentricity": 0.0,
        "Inclination(deg)": 60.0,
        "Latitude(deg)": 47.23526590338176,
        "Longitude(deg)": 147.8186616923867,
        "Mean Anomaly(deg)": 57.77238603646561,
        "RAAN(deg)": 209.9941193120436,
        "Satellite Name": "Test1 927",
        "Satellite Number": 927,
        "Semi-Major Axis(m)": 6980739.136638005,
        "Time(s)": 140
    },
    {
        "Altitude(m)": 609377.2870332904,
        "Argument of Periapsis(deg)": 0.0015628418869944607,
        "Eccentricity": 0.0,
        "Inclination(deg)": 60.0,
        "Latitude(deg)": 47.65470159849334,
        "Longitude(deg)": 148.45136029542732,
        "Mean Anomaly(deg)": 58.39249218192746,
        "RAAN(deg)": 209.99369926290387,
        "Satellite Name": "Test1 927",
        "Satellite Number": 927,
        "Semi-Major Axis(m)": 6980739.136638005,
        "Time(s)": 150
    },
    {
        "Altitude(m)": 609472.4520810867,
        "Argument of Periapsis(deg)": 0.0016670313461274247,
        "Eccentricity": 0.0,
        "Inclination(deg)": 60.0,
        "Latitude(deg)": 48.07008179255647,
        "Longitude(deg)": 149.09487964097355,
        "Mean Anomaly(deg)": 59.01259832738929,
        "RAAN(deg)": 209.99327921376417,
        "Satellite Name": "Test1 927",
        "Satellite Number": 927,
        "Semi-Major Axis(m)": 6980739.136638005,
        "Time(s)": 160
    },
    {
        "Altitude(m)": 609566.7561585123,
        "Argument of Periapsis(deg)": 0.0017712208052603888,
        "Eccentricity": 0.0,
        "Inclination(deg)": 60.0,
        "Latitude(deg)": 48.48128290336851,
        "Longitude(deg)": 149.74944564966276,
        "Mean Anomaly(deg)": 59.63270447285109,
        "RAAN(deg)": 209.9928591646244,
        "Satellite Name": "Test1 927",
        "Satellite Number": 927,
        "Semi-Major Axis(m)": 6980739.136638005,
        "Time(s)": 170
    },
    {
        "Altitude(m)": 609660.1426282306,
        "Argument of Periapsis(deg)": 0.001875410264393353,
        "Eccentricity": 0.0,
        "Inclination(deg)": 60.0,
        "Latitude(deg)": 48.8881777503561,
        "Longitude(deg)": 150.4152837880095,
        "Mean Anomaly(deg)": 60.25281061831292,
        "RAAN(deg)": 209.99243911548464,
        "Satellite Name": "Test1 927",
        "Satellite Number": 927,
        "Semi-Major Axis(m)": 6980739.136638005,
        "Time(s)": 180
    },
    {
        "Altitude(m)": 609752.5555237698,
        "Argument of Periapsis(deg)": 0.0019795997235263173,
        "Eccentricity": 0.0,
        "Inclination(deg)": 60.0,
        "Latitude(deg)": 49.290635501962264,
        "Longitude(deg)": 151.0926189953974,
        "Mean Anomaly(deg)": 60.87291676377477,
        "RAAN(deg)": 209.9920190663449,
        "Satellite Name": "Test1 927",
        "Satellite Number": 927,
        "Semi-Major Axis(m)": 6980739.136638005,
        "Time(s)": 190
    }
]